{"type": "FeatureCollection", "features": [ {"type": "Feature", "properties": {"norad_id": 34303, "name": "COSMOS 2251 DEB", "group": "cosmos-2251-debris", "lat": 59.01715014387615, "lon": -57.48114571023628, "alt_km": 611.1221575070285, "timestamp": "2025-12-20T03:42:47.788176+00:00", "meta": {"OBJECT_NAME": "COSMOS 2251 DEB", "OBJECT_ID": "1993-036MZ", "EPOCH": "2025-12-19T04:53:32.563104", "MEAN_MOTION": 14.54534064, "ECCENTRICITY": 0.0135329, "INCLINATION": 74.006, "RA_OF_ASC_NODE": 275.7871, "ARG_OF_PERICENTER": 52.5074, "MEAN_ANOMALY": 73.2659, "EPHEMERIS_TYPE": 0, "CLASSIFICATION_TYPE": "U", "NORAD_CAT_ID": 34303, "ELEMENT_SET_NO": 999, "REV_AT_EPOCH": 88056, "BSTAR": 0.0010697, "MEAN_MOTION_DOT": 5.128e-05, "MEAN_MOTION_DDOT": 0}, "tle": {"line1": "1 34303U 93036MZ  25353.20384911  .00005128  00000+0  10697-2 0  9990", "line2": "2 34303  74.0060 275.7871 0135329  52.5074  73.2659 14.54534064880560"}}, "geometry": {"type": "Point", "coordinates": [-57.48114571023628, 59.01715014387615]}}, {"type": "Feature", "properties": {"norad_id": 34304, "name": "COSMOS 2251 DEB", "group": "cosmos-2251-debris", "lat": 73.98650686904331, "lon": -158.3508377822818, "alt_km": 840.8649044283102, "timestamp": "2025-12-20T03:42:47.788186+00:00", "meta": {"OBJECT_NAME": "COSMOS 2251 DEB", "OBJECT_ID": "1993-036NA", "EPOCH": "2025-12-19T10:56:28.553856", "MEAN_MOTION": 14.37919229, "ECCENTRICITY": 0.0129018, "INCLINATION": 74.0136, "RA_OF_ASC_NODE": 110.2061, "ARG_OF_PERICENTER": 246.6357, "MEAN_ANOMALY": 188.69, "EPHEMERIS_TYPE": 0, "CLASSIFICATION_TYPE": "U", "NORAD_CAT_ID": 34304, "ELEMENT_SET_NO": 999, "REV_AT_EPOCH": 87393, "BSTAR": 0.0010637, "MEAN_MOTION_DOT": 3.51e-05, "MEAN_MOTION_DDOT": 0}, "tle": {"line1": "1 34304U 93036NA  25353.45588604  .00003510  00000+0  10637-2 0  9990", "line2": "2 34304  74.0136 110.2061 0129018 246.6357 188.6900 14.37919229873931"}}, "geometry": {"type": "Point", "coordinates": [-158.3508377822818, 73.98650686904331]}}, {"type": "Feature", "properties": {"norad_id": 34307, "name": "COSMOS 2251 DEB", "group": "cosmos-2251-debris", "lat": -49.34082851192774, "lon": 140.66047994431676, "alt_km": 1109.7702711780057, "timestamp": "2025-12-20T03:42:47.788196+00:00", "meta": {"OBJECT_NAME": "COSMOS 2251 DEB", "OBJECT_ID": "1993-036ND", "EPOCH": "2025-12-19T05:40:21.172224", "MEAN_MOTION": 13.54329892, "ECCENTRICITY": 0.0391843, "INCLINATION": 74.0534, "RA_OF_ASC_NODE": 302.69, "ARG_OF_PERICENTER": 132.2151, "MEAN_ANOMALY": 299.4871, "EPHEMERIS_TYPE": 0, "CLASSIFICATION_TYPE": "U", "NORAD_CAT_ID": 34307, "ELEMENT_SET_NO": 999, "REV_AT_EPOCH": 82950, "BSTAR": 0.00050628, "MEAN_MOTION_DOT": 5.44e-06, "MEAN_MOTION_DDOT": 0}, "tle": {"line1": "1 34307U 93036ND  25353.23635616  .00000544  00000+0  50628-3 0  9994", "line2": "2 34307  74.0534 302.6900 0391843 132.2151 299.4871 13.54329892829505"}}, "geometry": {"type": "Point", "coordinates": [140.66047994431676, -49.34082851192774]}}, {"type": "Feature", "properties": {"norad_id": 34313, "name": "COSMOS 2251 DEB", "group": "cosmos-2251-debris", "lat": 67.01855803229125, "lon": 67.21755740459307, "alt_km": 491.69307295036015, "timestamp": "2025-12-20T03:42:47.788206+00:00", "meta": {"OBJECT_NAME": "COSMOS 2251 DEB", "OBJECT_ID": "1993-036NK", "EPOCH": "2025-12-19T05:08:07.172160", "MEAN_MOTION": 15.20167674, "ECCENTRICITY": 0.001176, "INCLINATION": 73.9716, "RA_OF_ASC_NODE": 291.8749, "ARG_OF_PERICENTER": 71.0703, "MEAN_ANOMALY": 289.1768, "EPHEMERIS_TYPE": 0, "CLASSIFICATION_TYPE": "U", "NORAD_CAT_ID": 34313, "ELEMENT_SET_NO": 999, "REV_AT_EPOCH": 89163, "BSTAR": 0.0029328, "MEAN_MOTION_DOT": 0.0006414, "MEAN_MOTION_DDOT": 0}, "tle": {"line1": "1 34313U 93036NK  25353.21397190  .00064140  00000+0  29328-2 0  9995", "line2": "2 34313  73.9716 291.8749 0011760  71.0703 289.1768 15.20167674891639"}}, "geometry": {"type": "Point", "coordinates": [67.21755740459307, 67.01855803229125]}}, {"type": "Feature", "properties": {"norad_id": 34314, "name": "COSMOS 2251 DEB", "group": "cosmos-2251-debris", "lat": -71.87333300418524, "lon": -126.02842851249348, "alt_km": 878.0918290011459, "timestamp": "2025-12-20T03:42:47.788217+00:00", "meta": {"OBJECT_NAME": "COSMOS 2251 DEB", "OBJECT_ID": "1993-036NL", "EPOCH": "2025-12-19T14:47:48.071040", "MEAN_MOTION": 14.17439013, "ECCENTRICITY": 0.0103179, "INCLINATION": 74.0059, "RA_OF_ASC_NODE": 296.1111, "ARG_OF_PERICENTER": 40.158, "MEAN_ANOMALY": 14.3206, "EPHEMERIS_TYPE": 0, "CLASSIFICATION_TYPE": "U", "NORAD_CAT_ID": 34314, "ELEMENT_SET_NO": 999, "REV_AT_EPOCH": 86755, "BSTAR": 0.00052221, "MEAN_MOTION_DOT": 1.09e-05, "MEAN_MOTION_DDOT": 0}, "tle": {"line1": "1 34314U 93036NL  25353.61652860  .00001090  00000+0  52221-3 0  9992", "line2": "2 34314  74.0059 296.1111 0103179  40.1580  14.3206 14.17439013867552"}}, "geometry": {"type": "Point", "coordinates": [-126.02842851249348, -71.87333300418524]}}, {"type": "Feature", "properties": {"norad_id": 34316, "name": "COSMOS 2251 DEB", "group": "cosmos-2251-debris", "lat": -58.06240298907725, "lon": -65.24774193877677, "alt_km": 599.948429861056, "timestamp": "2025-12-20T03:42:47.788227+00:00", "meta": {"OBJECT_NAME": "COSMOS 2251 DEB", "OBJECT_ID": "1993-036NN", "EPOCH": "2025-12-19T08:40:46.609248", "MEAN_MOTION": 14.9202131, "ECCENTRICITY": 0.0008817, "INCLINATION": 74.0649, "RA_OF_ASC_NODE": 323.6212, "ARG_OF_PERICENTER": 45.1623, "MEAN_ANOMALY": 315.0275, "EPHEMERIS_TYPE": 0, "CLASSIFICATION_TYPE": "U", "NORAD_CAT_ID": 34316, "ELEMENT_SET_NO": 999, "REV_AT_EPOCH": 89308, "BSTAR": 0.0011029, "MEAN_MOTION_DOT": 0.00011177, "MEAN_MOTION_DDOT": 0}, "tle": {"line1": "1 34316U 93036NN  25353.36165057  .00011177  00000+0  11029-2 0  9990", "line2": "2 34316  74.0649 323.6212 0008817  45.1623 315.0275 14.92021310893087"}}, "geometry": {"type": "Point", "coordinates": [-65.24774193877677, -58.06240298907725]}}, {"type": "Feature", "properties": {"norad_id": 34317, "name": "COSMOS 2251 DEB", "group": "cosmos-2251-debris", "lat": -70.24093039034264, "lon": -103.05766931515122, "alt_km": 1114.3012297158502, "timestamp": "2025-12-20T03:42:47.788237+00:00", "meta": {"OBJECT_NAME": "COSMOS 2251 DEB", "OBJECT_ID": "1993-036NP", "EPOCH": "2025-12-19T13:07:41.530080", "MEAN_MOTION": 13.65128939, "ECCENTRICITY": 0.0336758, "INCLINATION": 73.9243, "RA_OF_ASC_NODE": 24.5515, "ARG_OF_PERICENTER": 12.4946, "MEAN_ANOMALY": 143.9754, "EPHEMERIS_TYPE": 0, "CLASSIFICATION_TYPE": "U", "NORAD_CAT_ID": 34317, "ELEMENT_SET_NO": 999, "REV_AT_EPOCH": 83712, "BSTAR": 0.00041999, "MEAN_MOTION_DOT": 4.79e-06, "MEAN_MOTION_DDOT": 0}, "tle": {"line1": "1 34317U 93036NP  25353.54700845  .00000479  00000+0  41999-3 0  9994", "line2": "2 34317  73.9243  24.5515 0336758  12.4946 143.9754 13.65128939837129"}}, "geometry": {"type": "Point", "coordinates": [-103.05766931515122, -70.24093039034264]}}, {"type": "Feature", "properties": {"norad_id": 34321, "name": "COSMOS 2251 DEB", "group": "cosmos-2251-debris", "lat": 48.15648858104575, "lon": 161.08418957119315, "alt_km": 729.3130226699404, "timestamp": "2025-12-20T03:42:47.788247+00:00", "meta": {"OBJECT_NAME": "COSMOS 2251 DEB", "OBJECT_ID": "1993-036NT", "EPOCH": "2025-12-19T12:52:55.720128", "MEAN_MOTION": 14.50082509, "ECCENTRICITY": 0.0015949, "INCLINATION": 74.0274, "RA_OF_ASC_NODE": 143.5911, "ARG_OF_PERICENTER": 272.7207, "MEAN_ANOMALY": 153.3831, "EPHEMERIS_TYPE": 0, "CLASSIFICATION_TYPE": "U", "NORAD_CAT_ID": 34321, "ELEMENT_SET_NO": 999, "REV_AT_EPOCH": 88585, "BSTAR": 0.00040697, "MEAN_MOTION_DOT": 1.554e-05, "MEAN_MOTION_DDOT": 0}, "tle": {"line1": "1 34321U 93036NT  25353.53675602  .00001554  00000+0  40697-3 0  9999", "line2": "2 34321  74.0274 143.5911 0015949 272.7207 153.3831 14.50082509885850"}}, "geometry": {"type": "Point", "coordinates": [161.08418957119315, 48.15648858104575]}}, {"type": "Feature", "properties": {"norad_id": 34323, "name": "COSMOS 2251 DEB", "group": "cosmos-2251-debris", "lat": -1.3138541792593945, "lon": 108.18219833045048, "alt_km": 685.1230374866136, "timestamp": "2025-12-20T03:42:47.788258+00:00", "meta": {"OBJECT_NAME": "COSMOS 2251 DEB", "OBJECT_ID": "1993-036NV", "EPOCH": "2025-12-19T14:45:56.336832", "MEAN_MOTION": 14.74632915, "ECCENTRICITY": 0.0058087, "INCLINATION": 73.9534, "RA_OF_ASC_NODE": 109.619, "ARG_OF_PERICENTER": 152.0617, "MEAN_ANOMALY": 224.2266, "EPHEMERIS_TYPE": 0, "CLASSIFICATION_TYPE": "U", "NORAD_CAT_ID": 34323, "ELEMENT_SET_NO": 999, "REV_AT_EPOCH": 88541, "BSTAR": 0.0015348, "MEAN_MOTION_DOT": 0.00010502, "MEAN_MOTION_DDOT": 0}, "tle": {"line1": "1 34323U 93036NV  25353.61523538  .00010502  00000+0  15348-2 0  9997", "line2": "2 34323  73.9534 109.6190 0058087 152.0617 224.2266 14.74632915885416"}}, "geometry": {"type": "Point", "coordinates": [108.18219833045048, -1.3138541792593945]}}, {"type": "Feature", "properties": {"norad_id": 34325, "name": "COSMOS 2251 DEB", "group": "cosmos-2251-debris", "lat": 34.31686974871465, "lon": -11.650591925992334, "alt_km": 787.7227966682276, "timestamp": "2025-12-20T03:42:47.788268+00:00", "meta": {"OBJECT_NAME": "COSMOS 2251 DEB", "OBJECT_ID": "1993-036NX", "EPOCH": "2025-12-19T18:33:22.912704", "MEAN_MOTION": 14.04513228, "ECCENTRICITY": 0.0191741, "INCLINATION": 73.8699, "RA_OF_ASC_NODE": 180.4141, "ARG_OF_PERICENTER": 196.4223, "MEAN_ANOMALY": 180.8553, "EPHEMERIS_TYPE": 0, "CLASSIFICATION_TYPE": "U", "NORAD_CAT_ID": 34325, "ELEMENT_SET_NO": 999, "REV_AT_EPOCH": 85614, "BSTAR": 0.0013971, "MEAN_MOTION_DOT": 2.602e-05, "MEAN_MOTION_DDOT": 0}, "tle": {"line1": "1 34325U 93036NX  25353.77318186  .00002602  00000+0  13971-2 0  9999", "line2": "2 34325  73.8699 180.4141 0191741 196.4223 180.8553 14.04513228856144"}}, "geometry": {"type": "Point", "coordinates": [-11.650591925992334, 34.31686974871465]}}]}